ONEWEB-0306             
1 49188U 21083C   23251.87580786  .00000072  00000+0  14930-3 0  9994
2 49188  87.9227 176.7887 0001709  82.6416 277.4910 13.18684999 96604
ONEWEB-0307             
1 49189U 21083D   23251.75931619  .00000132  00000+0  32777-3 0  9993
2 49189  87.9084 161.6566 0001969  74.5895 285.5451 13.13470399 98022
ONEWEB-0320             
1 49190U 21083E   23252.03389646 -.00000642  00000+0 -16617-2 0  9996
2 49190  87.9227 176.7798 0001955  75.0351 285.0998 13.18689679 97865
ONEWEB-0321             
1 49191U 21083F   23252.31801741  .00000032  00000+0  47983-4 0  9996
2 49191  87.9182 115.9145 0001964  88.6418 271.4940 13.20771339104549
ONEWEB-0322             
1 49192U 21083G   23251.75507307  .00000252  00000+0  65641-3 0  9999
2 49192  87.9082 161.6477 0002589  74.3617 285.7797 13.13467139 98016
ONEWEB-0324             
1 49193U 21083H   23251.86736295  .00000074  00000+0  15374-3 0  9992
2 49193  87.9229 176.7937 0001589  68.2889 291.8412 13.18689174 96582
ONEWEB-0325             
1 49194U 21083J   23251.87160658  .00000590  00000+0  14628-2 0  9991
2 49194  87.9418 176.6952 0001989  76.5606 283.5748 13.18687724 96592
ONEWEB-0326             
1 49195U 21083K   23251.88635127  .00000122  00000+0  27654-3 0  9996
2 49195  87.9231 176.7798 0001405  63.8767 296.2509 13.18688734 96582
